CCSDS_OMM_VERS = 2.0
CREATION_DATE  = 
ORIGINATOR     = 

OBJECT_NAME    = STARLINK-35420
OBJECT_ID      = 2025-245AC
CENTER_NAME    = EARTH
REF_FRAME      = TEME
TIME_SYSTEM    = UTC
MEAN_ELEMENT_THEORY = SGP/SGP4

EPOCH          = 2025-11-12T06:00:02.999808
MEAN_MOTION    = 15.75992423
ECCENTRICITY   = .00009469
INCLINATION    = 53.1533
RA_OF_ASC_NODE = 115.0095
ARG_OF_PERICENTER = 64.5958
MEAN_ANOMALY   = 61.4825

EPHEMERIS_TYPE = 0
CLASSIFICATION_TYPE = U
NORAD_CAT_ID   = 66260
ELEMENT_SET_NO = 999
REV_AT_EPOCH   = 320
BSTAR          = -.10858618E-1
MEAN_MOTION_DOT = -.1512171E-1
MEAN_MOTION_DDOT = 0

CCSDS_OMM_VERS = 2.0
CREATION_DATE  = 
ORIGINATOR     = 

OBJECT_NAME    = STARLINK-35536
OBJECT_ID      = 2025-245AD
CENTER_NAME    = EARTH
REF_FRAME      = TEME
TIME_SYSTEM    = UTC
MEAN_ELEMENT_THEORY = SGP/SGP4

EPOCH          = 2025-11-12T06:00:02.999808
MEAN_MOTION    = 15.75828499
ECCENTRICITY   = .00007725
INCLINATION    = 53.1535
RA_OF_ASC_NODE = 115.0013
ARG_OF_PERICENTER = 73.6716
MEAN_ANOMALY   = 56.5802

EPHEMERIS_TYPE = 0
CLASSIFICATION_TYPE = U
NORAD_CAT_ID   = 66261
ELEMENT_SET_NO = 999
REV_AT_EPOCH   = 320
BSTAR          = -.11286763E-1
MEAN_MOTION_DOT = -.1554133E-1
MEAN_MOTION_DDOT = 0

CCSDS_OMM_VERS = 2.0
CREATION_DATE  = 
ORIGINATOR     = 

OBJECT_NAME    = STARLINK-35487
OBJECT_ID      = 2025-245AE
CENTER_NAME    = EARTH
REF_FRAME      = TEME
TIME_SYSTEM    = UTC
MEAN_ELEMENT_THEORY = SGP/SGP4

EPOCH          = 2025-11-12T06:00:02.999808
MEAN_MOTION    = 15.75755551
ECCENTRICITY   = .00010873
INCLINATION    = 53.1537
RA_OF_ASC_NODE = 114.9965
ARG_OF_PERICENTER = 64.4129
MEAN_ANOMALY   = 67.8772

EPHEMERIS_TYPE = 0
CLASSIFICATION_TYPE = U
NORAD_CAT_ID   = 66262
ELEMENT_SET_NO = 999
REV_AT_EPOCH   = 315
BSTAR          = -.11284502E-1
MEAN_MOTION_DOT = -.1549686E-1
MEAN_MOTION_DDOT = 0

CCSDS_OMM_VERS = 2.0
CREATION_DATE  = 
ORIGINATOR     = 

OBJECT_NAME    = SHENZHOU-21 (SZ-21)
OBJECT_ID      = 2025-246A
CENTER_NAME    = EARTH
REF_FRAME      = TEME
TIME_SYSTEM    = UTC
MEAN_ELEMENT_THEORY = SGP/SGP4

EPOCH          = 2025-11-12T03:49:11.437824
MEAN_MOTION    = 15.60957853
ECCENTRICITY   = .00043888
INCLINATION    = 41.4652
RA_OF_ASC_NODE = 202.3333
ARG_OF_PERICENTER = 9.4250
MEAN_ANOMALY   = 350.6671

EPHEMERIS_TYPE = 0
CLASSIFICATION_TYPE = U
NORAD_CAT_ID   = 66263
ELEMENT_SET_NO = 999
REV_AT_EPOCH   = 25813
BSTAR          = .43344823E-3
MEAN_MOTION_DOT = .37252E-3
MEAN_MOTION_DDOT = 0

CCSDS_OMM_VERS = 2.0
CREATION_DATE  = 
ORIGINATOR     = 

OBJECT_NAME    = CZ-2F R/B
OBJECT_ID      = 2025-246B
CENTER_NAME    = EARTH
REF_FRAME      = TEME
TIME_SYSTEM    = UTC
MEAN_ELEMENT_THEORY = SGP/SGP4

EPOCH          = 2025-11-12T00:33:52.316352
MEAN_MOTION    = 16.48584502
ECCENTRICITY   = .00197608
INCLINATION    = 41.4424
RA_OF_ASC_NODE = 197.4583
ARG_OF_PERICENTER = 232.0549
MEAN_ANOMALY   = 127.8536

EPHEMERIS_TYPE = 0
CLASSIFICATION_TYPE = U
NORAD_CAT_ID   = 66264
ELEMENT_SET_NO = 999
REV_AT_EPOCH   = 184
BSTAR          = .13685201E-3
MEAN_MOTION_DOT = .12378867E+0
MEAN_MOTION_DDOT = .8118573E-5

CCSDS_OMM_VERS = 2.0
CREATION_DATE  = 
ORIGINATOR     = 

OBJECT_NAME    = LVM3 R/B
OBJECT_ID      = 2025-249A
CENTER_NAME    = EARTH
REF_FRAME      = TEME
TIME_SYSTEM    = UTC
MEAN_ELEMENT_THEORY = SGP/SGP4

EPOCH          = 2025-11-11T22:22:56.388576
MEAN_MOTION    = 3.12569455
ECCENTRICITY   = .66808579
INCLINATION    = 21.3344
RA_OF_ASC_NODE = 155.2570
ARG_OF_PERICENTER = 187.8409
MEAN_ANOMALY   = 151.0974

EPHEMERIS_TYPE = 0
CLASSIFICATION_TYPE = U
NORAD_CAT_ID   = 66310
ELEMENT_SET_NO = 999
REV_AT_EPOCH   = 31
BSTAR          = .14762109E-2
MEAN_MOTION_DOT = .53111E-3
MEAN_MOTION_DDOT = .75978E-6

CCSDS_OMM_VERS = 2.0
CREATION_DATE  = 
ORIGINATOR     = 

OBJECT_NAME    = CMS-03 (GSAT-7R)
OBJECT_ID      = 2025-249B
CENTER_NAME    = EARTH
REF_FRAME      = TEME
TIME_SYSTEM    = UTC
MEAN_ELEMENT_THEORY = SGP/SGP4

EPOCH          = 2025-11-02T23:49:54.111360
MEAN_MOTION    = 3.12953676
ECCENTRICITY   = .66878056
INCLINATION    = 21.3965
RA_OF_ASC_NODE = 160.6225
ARG_OF_PERICENTER = 178.2200
MEAN_ANOMALY   = 186.7171

EPHEMERIS_TYPE = 0
CLASSIFICATION_TYPE = U
NORAD_CAT_ID   = 66311
ELEMENT_SET_NO = 999
REV_AT_EPOCH   = 3
BSTAR          = .35582965E-3
MEAN_MOTION_DOT = .26741E-3
MEAN_MOTION_DDOT = .142389E-6

CCSDS_OMM_VERS = 2.0
CREATION_DATE  = 
ORIGINATOR     = 

OBJECT_NAME    = YAOGAN-46
OBJECT_ID      = 2025-250A
CENTER_NAME    = EARTH
REF_FRAME      = TEME
TIME_SYSTEM    = UTC
MEAN_ELEMENT_THEORY = SGP/SGP4

EPOCH          = 2025-11-12T01:16:34.460832
MEAN_MOTION    = 5.35115924
ECCENTRICITY   = .00492422
INCLINATION    = 20.0300
RA_OF_ASC_NODE = 111.7517
ARG_OF_PERICENTER = 122.8508
MEAN_ANOMALY   = 237.6424

EPHEMERIS_TYPE = 0
CLASSIFICATION_TYPE = U
NORAD_CAT_ID   = 66313
ELEMENT_SET_NO = 999
REV_AT_EPOCH   = 55
BSTAR          = 0
MEAN_MOTION_DOT = -.1E-6
MEAN_MOTION_DDOT = 0

CCSDS_OMM_VERS = 2.0
CREATION_DATE  = 
ORIGINATOR     = 

OBJECT_NAME    = CZ-7A R/B
OBJECT_ID      = 2025-250B
CENTER_NAME    = EARTH
REF_FRAME      = TEME
TIME_SYSTEM    = UTC
MEAN_ELEMENT_THEORY = SGP/SGP4

EPOCH          = 2025-11-04T18:44:00.682080
MEAN_MOTION    = 8.58954420
ECCENTRICITY   = .3555489
INCLINATION    = 19.9260
RA_OF_ASC_NODE = 116.0532
ARG_OF_PERICENTER = 130.5060
MEAN_ANOMALY   = 266.3968

EPHEMERIS_TYPE = 0
CLASSIFICATION_TYPE = U
NORAD_CAT_ID   = 66314
ELEMENT_SET_NO = 999
REV_AT_EPOCH   = 19
BSTAR          = .51460467E-3
MEAN_MOTION_DOT = .4554797E-1
MEAN_MOTION_DDOT = -.13031307E-4

CCSDS_OMM_VERS = 2.0
CREATION_DATE  = 
ORIGINATOR     = 

OBJECT_NAME    = SENTINEL-1D
OBJECT_ID      = 2025-251A
CENTER_NAME    = EARTH
REF_FRAME      = TEME
TIME_SYSTEM    = UTC
MEAN_ELEMENT_THEORY = SGP/SGP4

EPOCH          = 2025-11-12T06:52:47.043840
MEAN_MOTION    = 14.59424333
ECCENTRICITY   = .00011359
INCLINATION    = 98.1944
RA_OF_ASC_NODE = 321.7013
ARG_OF_PERICENTER = 348.0614
MEAN_ANOMALY   = 12.0559

EPHEMERIS_TYPE = 0
CLASSIFICATION_TYPE = U
NORAD_CAT_ID   = 66315
ELEMENT_SET_NO = 999
REV_AT_EPOCH   = 109
BSTAR          = .11140151E-3
MEAN_MOTION_DOT = .482E-5
MEAN_MOTION_DDOT = 0

CCSDS_OMM_VERS = 2.0
CREATION_DATE  = 
ORIGINATOR     = 

OBJECT_NAME    = QPS-SAR-14 (YACHIHOKO-I)
OBJECT_ID      = 2025-252A
CENTER_NAME    = EARTH
REF_FRAME      = TEME
TIME_SYSTEM    = UTC
MEAN_ELEMENT_THEORY = SGP/SGP4

EPOCH          = 2025-11-12T06:06:54.775296
MEAN_MOTION    = 14.97231234
ECCENTRICITY   = .00095948
INCLINATION    = 42.0045
RA_OF_ASC_NODE = 242.4279
ARG_OF_PERICENTER = 305.7933
MEAN_ANOMALY   = 54.2000

EPHEMERIS_TYPE = 0
CLASSIFICATION_TYPE = U
NORAD_CAT_ID   = 66316
ELEMENT_SET_NO = 999
REV_AT_EPOCH   = 96
BSTAR          = .13328115E-2
MEAN_MOTION_DOT = .15547E-3
MEAN_MOTION_DDOT = 0

CCSDS_OMM_VERS = 2.0
CREATION_DATE  = 
ORIGINATOR     = 

OBJECT_NAME    = ELECTRON R/B
OBJECT_ID      = 2025-252B
CENTER_NAME    = EARTH
REF_FRAME      = TEME
TIME_SYSTEM    = UTC
MEAN_ELEMENT_THEORY = SGP/SGP4

EPOCH          = 2025-11-12T04:40:11.820864
MEAN_MOTION    = 15.62215560
ECCENTRICITY   = .02270631
INCLINATION    = 41.9990
RA_OF_ASC_NODE = 239.3242
ARG_OF_PERICENTER = 280.4052
MEAN_ANOMALY   = 77.1279

EPHEMERIS_TYPE = 0
CLASSIFICATION_TYPE = U
NORAD_CAT_ID   = 66317
ELEMENT_SET_NO = 999
REV_AT_EPOCH   = 99
BSTAR          = .205738E-2
MEAN_MOTION_DOT = .753837E-2
MEAN_MOTION_DDOT = .1724169E-3

