STARLINK-35420          
1 66260U 25245AC  25316.25003472 -.01512171  00000+0 -10859-1 0  9991
2 66260  53.1533 115.0095 0000946  64.5958  61.4825 15.75992423  3207
STARLINK-35536          
1 66261U 25245AD  25316.25003472 -.01554133  00000+0 -11287-1 0  9992
2 66261  53.1535 115.0013 0000772  73.6716  56.5802 15.75828499  3201
STARLINK-35487          
1 66262U 25245AE  25316.25003472 -.01549686  00000+0 -11285-1 0  9998
2 66262  53.1537 114.9965 0001087  64.4129  67.8772 15.75755551  3157
SHENZHOU-21 (SZ-21)     
1 66263U 25246A   25316.15916016  .00037252  00000+0  43345-3 0  9998
2 66263  41.4652 202.3333 0004388   9.4250 350.6671 15.60957853258132
CZ-2F R/B               
1 66264U 25246B   25316.02352218  .12378867  81186-5  13685-3 0  9990
2 66264  41.4424 197.4583 0019760 232.0549 127.8536 16.48584502  1848
LVM3 R/B                
1 66310U 25249A   25315.93259709  .00053111  75978-6  14762-2 0  9993
2 66310  21.3344 155.2570 6680857 187.8409 151.0974  3.12569455   318
CMS-03 (GSAT-7R)        
1 66311U 25249B   25306.99298740  .00026741  14239-6  35583-3 0  9995
2 66311  21.3965 160.6225 6687805 178.2200 186.7171  3.12953676    33
YAOGAN-46               
1 66313U 25250A   25316.05317663 -.00000010  00000+0  00000+0 0  9991
2 66313  20.0300 111.7517 0049242 122.8508 237.6424  5.35115924   559
CZ-7A R/B               
1 66314U 25250B   25308.78056345  .04554797 -13031-4  51460-3 0  9993
2 66314  19.9260 116.0532 3555489 130.5060 266.3968  8.58954420   196
SENTINEL-1D             
1 66315U 25251A   25316.28665560  .00000482  00000+0  11140-3 0  9994
2 66315  98.1944 321.7013 0001135 348.0614  12.0559 14.59424333  1091
QPS-SAR-14 (YACHIHOKO-I)
1 66316U 25252A   25316.25480064  .00015547  00000+0  13328-2 0  9994
2 66316  42.0045 242.4279 0009594 305.7933  54.2000 14.97231234   968
ELECTRON R/B            
1 66317U 25252B   25316.19458126  .00753837  17242-3  20574-2 0  9994
2 66317  41.9990 239.3242 0227063 280.4052  77.1279 15.62215560   997
